[{"OBJECT_NAME":"STARLINK-1727","OBJECT_ID":"2020-062L","EPOCH":"2026-03-10T00:00:02.999808","MEAN_MOTION":15.68774266,"ECCENTRICITY":0.0003989,"INCLINATION":53.0455,"RA_OF_ASC_NODE":334.6751,"ARG_OF_PERICENTER":315.6652,"MEAN_ANOMALY":309.6896,"EPHEMERIS_TYPE":0,"CLASSIFICATION_TYPE":"U","NORAD_CAT_ID":46335,"ELEMENT_SET_NO":999,"REV_AT_EPOCH":585,"BSTAR":0.0010099157,"MEAN_MOTION_DOT":0.00118879,"MEAN_MOTION_DDOT":0},{"OBJECT_NAME":"STARLINK-36696","OBJECT_ID":"2026-022D","EPOCH":"2026-03-09T20:23:52.732032","MEAN_MOTION":15.74292379,"ECCENTRICITY":0.00013435,"INCLINATION":97.2839,"RA_OF_ASC_NODE":102.8273,"ARG_OF_PERICENTER":223.2078,"MEAN_ANOMALY":136.9082,"EPHEMERIS_TYPE":0,"CLASSIFICATION_TYPE":"U","NORAD_CAT_ID":67651,"ELEMENT_SET_NO":999,"REV_AT_EPOCH":557,"BSTAR":-0.0014101124,"MEAN_MOTION_DOT":-0.00197849,"MEAN_MOTION_DDOT":0}]
